MALLIGYONG-1            
1 58400U 23179A   24258.87871502  .00009805  00000+0  44852-3 0  9995
2 58400  97.3892 144.2030 0010284 114.3152 245.9158 15.20683338 45364
